#aV2016  3  2  0  0  0.00000000     288 DD+AD WGS84 FIT  NGA
## 1886 259200.00000000   300.00000000 57449 0.0000000000000
+   30     1  2  3  5  6  7  8  9 10 11 12 13 14 15 16 17 18
+         19 20 21 22 23 24 25 26 27 28 29 30 31  0  0  0  0
+          0  0  0  0  0  0  0  0  0  0  0  0  0  0  0  0  0
+          0  0  0  0  0  0  0  0  0  0  0  0  0  0  0  0  0
+          0  0  0  0  0  0  0  0  0  0  0  0  0  0  0  0  0
++         2  2  2  2  2  2  2  2  2  2  2  2  2  2  2  2  2
++         2  2  2  2  2  2  2  2  2  2  2  2  2  0  0  0  0
++         0  0  0  0  0  0  0  0  0  0  0  0  0  0  0  0  0
++         0  0  0  0  0  0  0  0  0  0  0  0  0  0  0  0  0
++         0  0  0  0  0  0  0  0  0  0  0  0  0  0  0  0  0
%c cc cc ccc ccc cccc cccc cccc cccc ccccc ccccc ccccc ccccc
%c cc cc ccc ccc cccc cccc cccc cccc ccccc ccccc ccccc ccccc
%f  0.0000000  0.000000000  0.00000000000  0.000000000000000
%f  0.0000000  0.000000000  0.00000000000  0.000000000000000
%i    0    0    0    0      0      0      0      0         0
%i    0    0    0    0      0      0      0      0         0
/*      NGA, ST. LOUIS,MO.                                  
/*   EPHEMERIS COMPUTED FROM 2 DAYS OF DATA                 
/*   EPOCHA v2.4 SMOOTHER                                   
/*   G1762 IERS2010 SATAF SATAPC                            
*  2016  3  2 13 40  0.00000000
P  1 -13997.463326  21654.520764   5792.638505     13.239779                    
V  1    459.821956  -7992.025371  30816.845212      0.010439                    
P  2  16554.783252  -2143.414350 -20146.144216    599.396126                    
V  2  -8509.708276  25344.372325  -9899.324578     -0.001965                    
P  3 -16982.714008  13021.609317 -15740.119312    -31.309733                    
V  3 -20079.767622    293.300589  21893.281371     -0.045522                    
P  5  26539.378956  -2159.377192  -1561.759433   -141.174140                    
V  5  -1499.243526   3296.378749 -31228.564419      0.033644                    
P  6  10222.361940  12852.435995 -20864.491665    154.126345                    
V  6 -11265.090843  24009.046737   9259.772062      0.059096                    
P  7  -3971.413541  24276.590675   9616.982086    467.155156                    
V  7  -7495.411624   9906.984604 -28870.591150     -0.017656                    
P  8 -14414.295843   5853.407889  21586.243549    -25.964840                    
V  8 -16026.796251 -22064.131810  -4710.078775     -0.014136                    
P  9   4600.753225  22291.785886 -13697.593317     81.798632                    
V  9 -12284.315635 -12511.014063 -24531.993061      0.076094                    
P 10 -14700.830905 -11586.108835  18876.479240     35.166331                    
V 10  23605.841825  -4165.874378  15780.174619     -0.067031                    
P 11 -11472.068227  19600.964192  13180.095347   -634.887057                    
V 11  -3073.834331 -18006.206140  23197.980606     -0.017711                    
P 12  20349.831556 -10205.002155 -13612.619645    370.742900                    
V 12  17187.316762    529.965797  25730.133675      0.015905                    
P 13  17464.161465   3589.256514  19520.609296     -0.487488                    
V 13  11512.239470  22314.613082 -14389.009939     -0.028887                    
P 14 -14922.737157 -22012.465460  -1363.388875     -0.163802                    
V 14   1120.153594  -3092.963523  31669.834298     -0.022171                    
P 15  11677.681320 -10649.155860  21215.250136   -299.812936                    
V 15  17697.857258  20864.116260   1071.089460     -0.017880                    
P 16 -26706.428743   -167.833011  -2020.263364    -35.378162                    
V 16   2351.273754  -1614.969501 -32015.209384      0.030097                    
P 17  14661.528383  22273.443856    363.091985   -201.465223                    
V 17  -1859.653001   1175.379327  31940.132535     -0.004781                    
P 18  -2108.670364 -16091.995097  21549.519903    489.314623                    
V 18  26052.476298  -3584.078917   -401.803855      0.039748                    
P 19  18184.632864  15905.036695 -10800.711036   -525.079680                    
V 19   4930.896637  12784.214737  28088.595045     -0.002247                    
P 20  19522.905817 -13170.224518  12178.133661    396.580812                    
V 20  16087.348073     82.702718 -25320.924940      0.025602                    
P 21   -686.967598 -23477.232931  12867.876556   -513.037205                    
V 21   8468.211075 -13117.939585 -25214.610883     -0.017538                    
P 22 -26498.528735   1850.571192   2532.335249    388.267075                    
V 22   2375.626763  -4178.836781  30568.105683     -0.063234                    
P 23  -5962.561612  16125.354409 -19955.985981   -162.725254                    
V 23 -16561.027449 -19963.889267 -11518.033234     -0.018339                    
P 24  14970.370959 -19951.038490   8786.044650    -13.287033                    
V 24  -1473.119310  11613.540611  28900.935430     -0.006137                    
P 25   8689.373492 -14751.845013 -20358.263093   -126.853432                    
V 25  25560.288798  -1922.768018  12554.954224     -0.068579                    
P 26 -23183.003392  -5509.973961 -11777.856061   -276.731746                    
V 26  14556.613808  -4103.754350 -26685.424661     -0.151256                    
P 27 -19086.564087  -5233.969357  17765.763432     68.084146                    
V 27 -12344.148562 -18886.566893 -18650.843754      0.036711                    
P 28  12971.166164  12680.622493  20049.589476    506.283575                    
V 28 -23959.894295   1611.685352  14913.565782      0.026073                    
P 29  -1029.422169 -21211.383499 -15961.566821    655.205979                    
V 29  12448.979546  16047.843941 -22061.513269      0.006379                    
P 30   3702.080668  19666.075236  17413.786332    102.468359                    
V 30 -11909.431811  18808.821349 -18781.287438      0.041140                    
P 31 -11308.491499 -10394.325914 -21515.989846    280.209873                    
V 31  12396.933067 -24661.397684   5726.607770     -0.016663                    
EOF
